CCSDS_OMM_VERS = 2.0
CREATION_DATE  = 
ORIGINATOR     = 

OBJECT_NAME    = 2025-274B
OBJECT_ID      = 2025-274B
CENTER_NAME    = EARTH
REF_FRAME      = TEME
TIME_SYSTEM    = UTC
MEAN_ELEMENT_THEORY = SGP/SGP4

EPOCH          = 2025-12-03T07:02:49.038432
MEAN_MOTION    = 14.91679224
ECCENTRICITY   = .00107269
INCLINATION    = 97.7377
RA_OF_ASC_NODE = 264.6557
ARG_OF_PERICENTER = 287.4555
MEAN_ANOMALY   = 72.5491

EPHEMERIS_TYPE = 0
CLASSIFICATION_TYPE = U
NORAD_CAT_ID   = 66651
ELEMENT_SET_NO = 999
REV_AT_EPOCH   = 99
BSTAR          = .56631047E-3
MEAN_MOTION_DOT = .5646E-4
MEAN_MOTION_DDOT = 0

CCSDS_OMM_VERS = 2.0
CREATION_DATE  = 
ORIGINATOR     = 

OBJECT_NAME    = 2025-274C
OBJECT_ID      = 2025-274C
CENTER_NAME    = EARTH
REF_FRAME      = TEME
TIME_SYSTEM    = UTC
MEAN_ELEMENT_THEORY = SGP/SGP4

EPOCH          = 2025-12-03T05:25:16.521024
MEAN_MOTION    = 14.91822835
ECCENTRICITY   = .00104962
INCLINATION    = 97.7382
RA_OF_ASC_NODE = 264.5912
ARG_OF_PERICENTER = 294.3514
MEAN_ANOMALY   = 65.6609

EPHEMERIS_TYPE = 0
CLASSIFICATION_TYPE = U
NORAD_CAT_ID   = 66652
ELEMENT_SET_NO = 999
REV_AT_EPOCH   = 98
BSTAR          = .41220059E-3
MEAN_MOTION_DOT = .4108E-4
MEAN_MOTION_DDOT = 0

CCSDS_OMM_VERS = 2.0
CREATION_DATE  = 
ORIGINATOR     = 

OBJECT_NAME    = 2025-274D
OBJECT_ID      = 2025-274D
CENTER_NAME    = EARTH
REF_FRAME      = TEME
TIME_SYSTEM    = UTC
MEAN_ELEMENT_THEORY = SGP/SGP4

EPOCH          = 2025-12-03T05:25:13.001952
MEAN_MOTION    = 14.91829699
ECCENTRICITY   = .00112857
INCLINATION    = 97.7380
RA_OF_ASC_NODE = 264.5910
ARG_OF_PERICENTER = 290.1409
MEAN_ANOMALY   = 69.8595

EPHEMERIS_TYPE = 0
CLASSIFICATION_TYPE = U
NORAD_CAT_ID   = 66653
ELEMENT_SET_NO = 999
REV_AT_EPOCH   = 98
BSTAR          = .38988898E-3
MEAN_MOTION_DOT = .3884E-4
MEAN_MOTION_DDOT = 0

CCSDS_OMM_VERS = 2.0
CREATION_DATE  = 
ORIGINATOR     = 

OBJECT_NAME    = JACK E
OBJECT_ID      = 2025-274E
CENTER_NAME    = EARTH
REF_FRAME      = TEME
TIME_SYSTEM    = UTC
MEAN_ELEMENT_THEORY = SGP/SGP4

EPOCH          = 2025-12-03T07:00:46.492128
MEAN_MOTION    = 14.91995256
ECCENTRICITY   = .00118397
INCLINATION    = 97.7384
RA_OF_ASC_NODE = 264.6580
ARG_OF_PERICENTER = 291.4111
MEAN_ANOMALY   = 68.5844

EPHEMERIS_TYPE = 0
CLASSIFICATION_TYPE = U
NORAD_CAT_ID   = 66654
ELEMENT_SET_NO = 999
REV_AT_EPOCH   = 99
BSTAR          = .47327439E-3
MEAN_MOTION_DOT = .4748E-4
MEAN_MOTION_DDOT = 0

CCSDS_OMM_VERS = 2.0
CREATION_DATE  = 
ORIGINATOR     = 

OBJECT_NAME    = 2025-274F
OBJECT_ID      = 2025-274F
CENTER_NAME    = EARTH
REF_FRAME      = TEME
TIME_SYSTEM    = UTC
MEAN_ELEMENT_THEORY = SGP/SGP4

EPOCH          = 2025-12-03T06:59:54.847392
MEAN_MOTION    = 14.92219503
ECCENTRICITY   = .00078747
INCLINATION    = 97.7359
RA_OF_ASC_NODE = 264.6588
ARG_OF_PERICENTER = 319.8503
MEAN_ANOMALY   = 40.2134

EPHEMERIS_TYPE = 0
CLASSIFICATION_TYPE = U
NORAD_CAT_ID   = 66655
ELEMENT_SET_NO = 999
REV_AT_EPOCH   = 99
BSTAR          = .47770941E-3
MEAN_MOTION_DOT = .4817E-4
MEAN_MOTION_DDOT = 0

CCSDS_OMM_VERS = 2.0
CREATION_DATE  = 
ORIGINATOR     = 

OBJECT_NAME    = 2025-274G
OBJECT_ID      = 2025-274G
CENTER_NAME    = EARTH
REF_FRAME      = TEME
TIME_SYSTEM    = UTC
MEAN_ELEMENT_THEORY = SGP/SGP4

EPOCH          = 2025-12-03T00:33:22.809888
MEAN_MOTION    = 14.92174032
ECCENTRICITY   = .00125314
INCLINATION    = 97.7381
RA_OF_ASC_NODE = 264.3956
ARG_OF_PERICENTER = 293.9277
MEAN_ANOMALY   = 66.0630

EPHEMERIS_TYPE = 0
CLASSIFICATION_TYPE = U
NORAD_CAT_ID   = 66656
ELEMENT_SET_NO = 999
REV_AT_EPOCH   = 95
BSTAR          = .50145272E-3
MEAN_MOTION_DOT = .5058E-4
MEAN_MOTION_DDOT = 0

CCSDS_OMM_VERS = 2.0
CREATION_DATE  = 
ORIGINATOR     = 

OBJECT_NAME    = SPIRONE
OBJECT_ID      = 2025-274H
CENTER_NAME    = EARTH
REF_FRAME      = TEME
TIME_SYSTEM    = UTC
MEAN_ELEMENT_THEORY = SGP/SGP4

EPOCH          = 2025-12-03T06:58:30.313632
MEAN_MOTION    = 14.92357413
ECCENTRICITY   = .00111336
INCLINATION    = 97.7379
RA_OF_ASC_NODE = 264.6598
ARG_OF_PERICENTER = 312.1100
MEAN_ANOMALY   = 47.9172

EPHEMERIS_TYPE = 0
CLASSIFICATION_TYPE = U
NORAD_CAT_ID   = 66657
ELEMENT_SET_NO = 999
REV_AT_EPOCH   = 99
BSTAR          = .51860474E-3
MEAN_MOTION_DOT = .5255E-4
MEAN_MOTION_DDOT = 0

CCSDS_OMM_VERS = 2.0
CREATION_DATE  = 
ORIGINATOR     = 

OBJECT_NAME    = 2025-274J
OBJECT_ID      = 2025-274J
CENTER_NAME    = EARTH
REF_FRAME      = TEME
TIME_SYSTEM    = UTC
MEAN_ELEMENT_THEORY = SGP/SGP4

EPOCH          = 2025-12-03T06:57:23.007168
MEAN_MOTION    = 14.92531966
ECCENTRICITY   = .00117441
INCLINATION    = 97.7381
RA_OF_ASC_NODE = 264.6607
ARG_OF_PERICENTER = 314.8955
MEAN_ANOMALY   = 45.1310

EPHEMERIS_TYPE = 0
CLASSIFICATION_TYPE = U
NORAD_CAT_ID   = 66658
ELEMENT_SET_NO = 999
REV_AT_EPOCH   = 99
BSTAR          = .49582647E-3
MEAN_MOTION_DOT = .5045E-4
MEAN_MOTION_DDOT = 0

CCSDS_OMM_VERS = 2.0
CREATION_DATE  = 
ORIGINATOR     = 

OBJECT_NAME    = JACK K
OBJECT_ID      = 2025-274K
CENTER_NAME    = EARTH
REF_FRAME      = TEME
TIME_SYSTEM    = UTC
MEAN_ELEMENT_THEORY = SGP/SGP4

EPOCH          = 2025-12-03T06:56:11.915520
MEAN_MOTION    = 14.92717917
ECCENTRICITY   = .0012467
INCLINATION    = 97.7382
RA_OF_ASC_NODE = 264.6620
ARG_OF_PERICENTER = 315.9556
MEAN_ANOMALY   = 44.0669

EPHEMERIS_TYPE = 0
CLASSIFICATION_TYPE = U
NORAD_CAT_ID   = 66659
ELEMENT_SET_NO = 999
REV_AT_EPOCH   = 99
BSTAR          = .49134978E-3
MEAN_MOTION_DOT = .5023E-4
MEAN_MOTION_DDOT = 0

CCSDS_OMM_VERS = 2.0
CREATION_DATE  = 
ORIGINATOR     = 

OBJECT_NAME    = K-HERO
OBJECT_ID      = 2025-274L
CENTER_NAME    = EARTH
REF_FRAME      = TEME
TIME_SYSTEM    = UTC
MEAN_ELEMENT_THEORY = SGP/SGP4

EPOCH          = 2025-12-03T02:05:41.370432
MEAN_MOTION    = 14.92867452
ECCENTRICITY   = .00131137
INCLINATION    = 97.7385
RA_OF_ASC_NODE = 264.4654
ARG_OF_PERICENTER = 317.1645
MEAN_ANOMALY   = 42.8552

EPHEMERIS_TYPE = 0
CLASSIFICATION_TYPE = U
NORAD_CAT_ID   = 66660
ELEMENT_SET_NO = 999
REV_AT_EPOCH   = 96
BSTAR          = .49939429E-3
MEAN_MOTION_DOT = .5127E-4
MEAN_MOTION_DDOT = 0

CCSDS_OMM_VERS = 2.0
CREATION_DATE  = 
ORIGINATOR     = 

OBJECT_NAME    = SNUGLITE-III
OBJECT_ID      = 2025-274M
CENTER_NAME    = EARTH
REF_FRAME      = TEME
TIME_SYSTEM    = UTC
MEAN_ELEMENT_THEORY = SGP/SGP4

EPOCH          = 2025-12-03T02:04:43.927392
MEAN_MOTION    = 14.93017228
ECCENTRICITY   = .0013814
INCLINATION    = 97.7382
RA_OF_ASC_NODE = 264.4662
ARG_OF_PERICENTER = 317.8272
MEAN_ANOMALY   = 42.1883

EPHEMERIS_TYPE = 0
CLASSIFICATION_TYPE = U
NORAD_CAT_ID   = 66661
ELEMENT_SET_NO = 999
REV_AT_EPOCH   = 96
BSTAR          = .40937782E-3
MEAN_MOTION_DOT = .4208E-4
MEAN_MOTION_DDOT = 0

CCSDS_OMM_VERS = 2.0
CREATION_DATE  = 
ORIGINATOR     = 

OBJECT_NAME    = 2025-274N
OBJECT_ID      = 2025-274N
CENTER_NAME    = EARTH
REF_FRAME      = TEME
TIME_SYSTEM    = UTC
MEAN_ELEMENT_THEORY = SGP/SGP4

EPOCH          = 2025-12-03T06:53:49.377120
MEAN_MOTION    = 14.93079723
ECCENTRICITY   = .00141827
INCLINATION    = 97.7383
RA_OF_ASC_NODE = 264.6643
ARG_OF_PERICENTER = 316.4523
MEAN_ANOMALY   = 43.5576

EPHEMERIS_TYPE = 0
CLASSIFICATION_TYPE = U
NORAD_CAT_ID   = 66662
ELEMENT_SET_NO = 999
REV_AT_EPOCH   = 99
BSTAR          = .30192864E-3
MEAN_MOTION_DOT = .3094E-4
MEAN_MOTION_DDOT = 0

