2025-274B               
1 66651U 25274B   25337.29362313  .00005646  00000+0  56631-3 0  9997
2 66651  97.7377 264.6557 0010726 287.4555  72.5491 14.91679224   994
2025-274C               
1 66652U 25274C   25337.22588566  .00004108  00000+0  41220-3 0  9991
2 66652  97.7382 264.5912 0010496 294.3514  65.6609 14.91822835   982
2025-274D               
1 66653U 25274D   25337.22584493  .00003884  00000+0  38989-3 0  9995
2 66653  97.7380 264.5910 0011285 290.1409  69.8595 14.91829699   988
JACK E                  
1 66654U 25274E   25337.29220477  .00004748  00000+0  47327-3 0  9998
2 66654  97.7384 264.6580 0011839 291.4111  68.5844 14.91995256   993
2025-274F               
1 66655U 25274F   25337.29160703  .00004817  00000+0  47771-3 0  9994
2 66655  97.7359 264.6588 0007874 319.8503  40.2134 14.92219503   992
2025-274G               
1 66656U 25274G   25337.02318067  .00005058  00000+0  50145-3 0  9991
2 66656  97.7381 264.3956 0012531 293.9277  66.0630 14.92174032   950
SPIRONE                 
1 66657U 25274H   25337.29062863  .00005255  00000+0  51860-3 0  9995
2 66657  97.7379 264.6598 0011133 312.1100  47.9172 14.92357413   998
2025-274J               
1 66658U 25274J   25337.28984962  .00005045  00000+0  49583-3 0  9994
2 66658  97.7381 264.6607 0011744 314.8955  45.1310 14.92531966   999
JACK K                  
1 66659U 25274K   25337.28902680  .00005023  00000+0  49135-3 0  9991
2 66659  97.7382 264.6620 0012467 315.9556  44.0669 14.92717917   995
K-HERO                  
1 66660U 25274L   25337.08728438  .00005127  00000+0  49939-3 0  9995
2 66660  97.7385 264.4654 0013113 317.1645  42.8552 14.92867452   961
SNUGLITE-III            
1 66661U 25274M   25337.08661953  .00004208  00000+0  40938-3 0  9993
2 66661  97.7382 264.4662 0013814 317.8272  42.1883 14.93017228   968
2025-274N               
1 66662U 25274N   25337.28737705  .00003094  00000+0  30193-3 0  9999
2 66662  97.7383 264.6643 0014182 316.4523  43.5576 14.93079723   999
